NORAD_CAT_ID,OBJECT_NAME,OBJECT_TYPE,EPOCH,MEAN_MOTION,ECCENTRICITY,INCLINATION,RA_OF_ASC_NODE,ARG_OF_PERICENTER,MEAN_ANOMALY,BSTAR,MEAN_MOTION_DOT,MEAN_MOTION_DDOT,TLE_LINE0,TLE_LINE1,TLE_LINE2,SEMIMAJOR_AXIS,PERIOD,APOGEE,PERIGEE,DECAYED
51142.0,STARLINK-3369,PAYLOAD,2022-06-16 02:00:01,15.08838755,0.0001812,53.2208,286.0851,38.4731,24.421,0.00095761,0.00014985,0.0,0 STARLINK-3369,1 51142U 22005AQ  22167.08334491  .00014985  00000-0  95761-3 0  9990,2 51142  53.2208 286.0851 0001812  38.4731  24.4210 15.08838755  1300,6917.884,95.438,541.003,538.496,0.0
51142.0,STARLINK-3369,PAYLOAD,2022-06-19 14:00:01,15.08853439,0.0001898,53.2196,270.3766,36.3047,328.2998,-0.0022429,-0.0003582,0.0,0 STARLINK-3369,1 51142U 22005AQ  22170.58334491 -.00035820  00000-0 -22429-2 0  9992,2 51142  53.2196 270.3766 0001898  36.3047 328.2998 15.08853439  1302,6917.839,95.437,541.0169999999998,538.391,0.0
51142.0,STARLINK-3369,PAYLOAD,2022-06-19 22:00:00,15.08852483,0.0001825,53.219,268.8794,34.5506,341.6479,-0.0014912,-0.00023951,0.0,0 STARLINK-3369,1 51142U 22005AQ  22170.91667824 -.00023951  00000-0 -14912-2 0  9998,2 51142  53.2190 268.8794 0001825  34.5506 341.6479 15.08852483  1300,6917.842,95.437,540.97,538.445,0.0
51142.0,STARLINK-3369,PAYLOAD,2022-06-20 14:00:01,15.08823161,0.0001977,53.219,265.8877,38.8763,0.5267,0.00038969,5.916e-05,0.0,0 STARLINK-3369,1 51142U 22005AQ  22171.58334491  .00005916  00000-0  38969-3 0  9991,2 51142  53.2190 265.8877 0001977  38.8763   0.5267 15.08823161  1306,6917.932,95.439,541.165,538.429,0.0
51142.0,STARLINK-3369,PAYLOAD,2022-06-20 22:00:00,15.0885587,0.0001965,53.2187,264.3904,39.7278,11.2519,-0.0041909,-0.00066402,0.0,0 STARLINK-3369,1 51142U 22005AQ  22171.91667824 -.00066402  00000-0 -41909-2 0  9993,2 51142  53.2187 264.3904 0001965  39.7278  11.2519 15.08855870 25043,6917.831999999999,95.437,541.056,538.3380000000002,0.0
51142.0,STARLINK-3369,PAYLOAD,2022-06-21 06:00:00,15.08815055,0.000191,53.2189,262.8932,45.8383,16.7275,0.0020255,0.00032073,0.0,0 STARLINK-3369,1 51142U 22005AQ  22172.25001157  .00032073  00000-0  20255-2 0  9998,2 51142  53.2189 262.8932 0001910  45.8383  16.7275 15.08815055 25099,6917.956999999999,95.439,541.143,538.5,0.0
51142.0,STARLINK-3369,PAYLOAD,2022-06-21 14:00:01,15.08820891,0.0002112,53.2188,261.3988,41.6207,32.5203,0.00083414,0.00013005,0.0,0 STARLINK-3369,1 51142U 22005AQ  22172.58334491  .00013005  00000-0  83414-3 0  9995,2 51142  53.2188 261.3988 0002112  41.6207  32.5203 15.08820891  1306,6917.939,95.439,541.265,538.3430000000002,0.0
51142.0,STARLINK-3369,PAYLOAD,2022-06-21 22:00:00,15.08851157,0.0002052,53.2188,259.9013,41.6966,44.0206,-0.0014574,-0.00023415,0.0,0 STARLINK-3369,1 51142U 22005AQ  22172.91667824 -.00023415  00000-0 -14574-2 0  9999,2 51142  53.2188 259.9013 0002052  41.6966  44.0206 15.08851157 25196,6917.846,95.437,541.131,538.2919999999998,0.0
51142.0,STARLINK-3369,PAYLOAD,2022-06-22 14:00:01,15.08815595,0.0002272,53.2191,256.9098,43.7592,65.1474,0.0012842,0.00020196,0.0,0 STARLINK-3369,1 51142U 22005AQ  22173.58334491  .00020196  00000-0  12842-2 0  9991,2 51142  53.2191 256.9098 0002272  43.7592  65.1474 15.08815595  1306,6917.955,95.439,541.3919999999998,538.248,0.0
51142.0,STARLINK-3369,PAYLOAD,2022-06-22 22:00:00,15.08837897,0.0001921,53.2174,255.415,48.705,71.7725,-0.0001301,-2.358e-05,0.0,0 STARLINK-3369,1 51142U 22005AQ  22173.91667824 -.00002358  00000-0 -13010-3 0  9998,2 51142  53.2174 255.4150 0001921  48.7050  71.7725 15.08837897 25356,6917.887,95.438,541.081,538.423,0.0
51142.0,STARLINK-3369,PAYLOAD,2022-06-23 14:00:01,15.08813729,0.0002248,53.2197,252.4209,41.0077,102.6889,0.0017495,0.00027645,0.0,0 STARLINK-3369,1 51142U 22005AQ  22174.58334491  .00027645  00000-0  17495-2 0  9997,2 51142  53.2197 252.4209 0002248  41.0077 102.6889 15.08813729  1303,6917.9609999999975,95.439,541.381,538.271,0.0
51142.0,STARLINK-3369,PAYLOAD,2022-06-23 22:00:00,15.08845537,0.0002131,53.2198,250.9233,42.163,113.1084,-0.0011790999999999,-0.00019008,0.0,0 STARLINK-3369,1 51142U 22005AQ  22174.91667824 -.00019008  00000-0 -11791-2 0  9992,2 51142  53.2198 250.9233 0002131  42.1630 113.1084 15.08845537  1308,6917.863,95.437,541.203,538.254,0.0
51142.0,STARLINK-3369,PAYLOAD,2022-06-24 06:00:02,15.08825933,0.000213,53.2184,249.4274,44.271,122.6561,2.6534e-05,1.34e-06,0.0,0 STARLINK-3369,1 51142U 22005AQ  22175.25002315  .00000134  00000-0  26534-4 0  9999,2 51142  53.2184 249.4274 0002130  44.2710 122.6561 15.08825933 25558,6917.9230000000025,95.438,541.262,538.315,0.0
51142.0,STARLINK-3369,PAYLOAD,2022-06-24 14:00:01,15.08829602,0.00023,53.2201,247.9322,41.269,137.1977,0.0020752,0.00032884,0.0,0 STARLINK-3369,1 51142U 22005AQ  22175.58334491  .00032884  00000-0  20752-2 0  9999,2 51142  53.2201 247.9322 0002300  41.2690 137.1977 15.08829602  1304,6917.9119999999975,95.438,541.368,538.186,0.0
51142.0,STARLINK-3369,PAYLOAD,2022-06-24 22:00:01,15.088648999999998,0.0002124,53.2201,246.4345,42.7109,147.4115,-0.0023552,-0.00037603,0.0,0 STARLINK-3369,1 51142U 22005AQ  22175.91668981 -.00037603  00000-0 -23552-2 0  9997,2 51142  53.2201 246.4345 0002124  42.7109 147.4115 15.08864900 25650,6917.804,95.436,541.139,538.2,0.0
51142.0,STARLINK-3369,PAYLOAD,2022-06-25 14:00:01,15.08812105,0.0002231,53.2202,243.4436,39.277,173.9878,0.0023344,0.00037032,0.0,0 STARLINK-3369,1 51142U 22005AQ  22176.58334491  .00037032  00000-0  23344-2 0  9990,2 51142  53.2202 243.4436 0002231  39.2770 173.9878 15.08812105  1309,6917.965999999999,95.439,541.374,538.2869999999998,0.0
51142.0,STARLINK-3369,PAYLOAD,2022-06-25 22:00:00,15.08843249,0.0002052,53.22,241.9458,41.6117,183.2374,-0.0005924,-9.705e-05,0.0,0 STARLINK-3369,1 51142U 22005AQ  22176.91667824 -.00009705  00000-0 -59240-3 0  9999,2 51142  53.2200 241.9458 0002052  41.6117 183.2374 15.08843249 25806,6917.87,95.437,541.155,538.316,0.0
51142.0,STARLINK-3369,PAYLOAD,2022-06-26 14:00:01,15.08842084,0.0002185,53.2197,238.955,39.0444,209.0739,-3.2369e-05,-8.03e-06,0.0,0 STARLINK-3369,1 51142U 22005AQ  22177.58335648 -.00000803  00000-0 -32369-4 0  9993,2 51142  53.2197 238.9550 0002185  39.0444 209.0739 15.08842084  1308,6917.874,95.437,541.251,538.227,0.0
51142.0,STARLINK-3369,PAYLOAD,2022-06-26 22:00:00,15.08830068,0.0001966,53.2195,237.4572,40.4191,219.2368,-5.2389e-05,-1.122e-05,0.0,0 STARLINK-3369,1 51142U 22005AQ  22177.91667824 -.00001122  00000-0 -52389-4 0  9993,2 51142  53.2195 237.4572 0001966  40.4191 219.2368 15.08830068 25952,6917.911,95.438,541.136,538.4159999999998,0.0
51142.0,STARLINK-3369,PAYLOAD,2022-06-27 00:00:00,15.0880881,0.0001915,53.2193,237.0829,41.879,310.6798,0.0028445,0.00045235,0.0,0 STARLINK-3369,1 51142U 22005AQ  22178.00001157  .00045235  00000-0  28445-2 0  9990,2 51142  53.2193 237.0829 0001915  41.8790 310.6798 15.08808810  1301,6917.976,95.44,541.1659999999998,538.516,0.0
51142.0,STARLINK-3369,PAYLOAD,2022-06-27 14:00:01,15.08825315,0.0002109,53.2189,234.4667,37.6633,245.1649,-0.0001854,-3.237e-05,0.0,0 STARLINK-3369,1 51142U 22005AQ  22178.58334491 -.00003237  00000-0 -18540-3 0  9997,2 51142  53.2189 234.4667 0002109  37.6633 245.1649 15.08825315  1308,6917.925,95.438,541.249,538.331,0.0
51142.0,STARLINK-3369,PAYLOAD,2022-06-27 22:00:00,15.08808888,0.0001907,53.2187,232.9687,39.2042,255.2085,0.00042426,6.465e-05,0.0,0 STARLINK-3369,1 51142U 22005AQ  22178.91667824  .00006465  00000-0  42426-3 0  9997,2 51142  53.2187 232.9687 0001907  39.2042 255.2085 15.08808888  1300,6917.975,95.44,541.16,538.521,0.0
51142.0,STARLINK-3369,PAYLOAD,2022-06-28 06:00:00,15.08856448,0.0002002,53.2186,231.4728,44.1726,261.8289,-0.0013254,-0.0002133,0.0,0 STARLINK-3369,1 51142U 22005AQ  22179.25001157 -.00021330  00000-0 -13254-2 0  9992,2 51142  53.2186 231.4728 0002002  44.1726 261.8289 15.08856448 26154,6917.83,95.437,541.08,538.31,0.0
51142.0,STARLINK-3369,PAYLOAD,2022-06-28 14:00:01,15.08820851,0.0002189,53.2182,229.978,39.5653,278.04400000000004,0.0026199,0.00041633,0.0,0 STARLINK-3369,1 51142U 22005AQ  22179.58334491  .00041633  00000-0  26199-2 0  9996,2 51142  53.2182 229.9780 0002189  39.5653 278.0440 15.08820851  1301,6917.939,95.439,541.318,538.29,0.0
51142.0,STARLINK-3369,PAYLOAD,2022-06-28 22:00:00,15.08836284,0.0002017,53.2181,228.4799,42.5346,286.6723,0.00066515,0.00010313,0.0,0 STARLINK-3369,1 51142U 22005AQ  22179.91667824  .00010313  00000-0  66515-3 0  9990,2 51142  53.2181 228.4799 0002017  42.5346 286.6723 15.08836284  1303,6917.892,95.438,541.1519999999998,538.361,0.0
51142.0,STARLINK-3369,PAYLOAD,2022-06-29 06:00:00,15.08864924,0.0002036,53.2181,226.9841,42.8501,297.9461,-0.0042118,-0.00066746,0.0,0 STARLINK-3369,1 51142U 22005AQ  22180.25001157 -.00066746  00000-0 -42118-2 0  9995,2 51142  53.2181 226.9841 0002036  42.8501 297.9461 15.08864924 26304,6917.804,95.436,541.078,538.261,0.0
51142.0,STARLINK-3369,PAYLOAD,2022-06-29 14:00:01,15.088005,0.0002185,53.2178,225.4891,37.4449,314.9508,0.0026181,0.00041581,0.0,0 STARLINK-3369,1 51142U 22005AQ  22180.58334491  .00041581  00000-0  26181-2 0  9991,2 51142  53.2178 225.4891 0002185  37.4449 314.9508 15.08800500  1300,6918.001,95.44,541.378,538.355,0.0
51142.0,STARLINK-3369,PAYLOAD,2022-06-29 22:00:00,15.08810418,0.0002027,53.2179,223.991,41.0252,322.9455,0.0013841,0.00021791,0.0,0 STARLINK-3369,1 51142U 22005AQ  22180.91667824  .00021791  00000-0  13841-2 0  9997,2 51142  53.2179 223.9910 0002027  41.0252 322.9455 15.08810418  1303,6917.971,95.439,541.238,538.434,0.0
51142.0,STARLINK-3369,PAYLOAD,2022-06-30 14:00:01,15.08809585,0.0002283,53.2178,221.0002,37.8742,349.2478,0.0024547,0.00038963,0.0,0 STARLINK-3369,1 51142U 22005AQ  22181.58334491  .00038963  00000-0  24547-2 0  9996,2 51142  53.2178 221.0002 0002283  37.8742 349.2478 15.08809585  1304,6917.973000000001,95.439,541.418,538.259,0.0
